SHIJIAN-15 (SJ-15)
1 39210U 13037C   25358.25378019  .00000803  00000+0  13843-3 0  9999
2 39210  98.1013 357.0527 0006032 357.9976   2.1205 14.71181187668600